ORBCOMM FM05            
1 25117U 97084F   25040.85269116  .00002810  00000+0  83590-3 0  9991
2 25117  45.0132 259.1224 0001281 296.6746  63.3974 14.45146645422189
ORBCOMM FM06            
1 25118U 97084G   25040.86011657  .00002544  00000+0  75808-3 0  9995
2 25118  45.0124 258.9747 0000308 319.8761  54.7877 14.45310245423100
ORBCOMM FM07            
1 25119U 97084H   25040.86840847  .00003005  00000+0  88931-3 0  9991
2 25119  45.0122 259.6825 0001984 284.1650  75.8980 14.45241444423097
ORBCOMM FM04            
1 25159U 98007C   25040.77738213  .00001976  00000+0  74358-3 0  9997
2 25159 107.9689 237.0864 0039305 110.4385 250.0982 14.34242438405950
ORBCOMM FM17            
1 25413U 98046A   25040.70944703  .00001871  00000+0  70502-3 0  9990
2 25413  44.9934 139.0569 0003840 264.3858  95.6551 14.34637981384860
ORBCOMM FM18            
1 25414U 98046B   25040.33677183  .00002271  00000+0  79163-3 0  9992
2 25414  44.9932  61.5511 0005627 331.5497  28.5043 14.37907355385844
ORBCOMM FM19            
1 25415U 98046C   25040.78553670  .00002494  00000+0  86808-3 0  9997
2 25415  44.9942  61.2224 0004777 321.9089 207.5422 14.37722434385864
