<?xml version="1.0" encoding="UTF-8"?>
<ndm xmlns:xsi="http://www.w3.org/2001/XMLSchema-instance" xsi:noNamespaceSchemaLocation="https://sanaregistry.org/r/ndmxml_unqualified/ndmxml-2.0.0-master-2.0.xsd">
<omm id="CCSDS_OMM_VERS" version="2.0">
<header><CREATION_DATE/><ORIGINATOR/></header><body><segment><metadata><OBJECT_NAME>ORBCOMM FM05</OBJECT_NAME><OBJECT_ID>1997-084F</OBJECT_ID><CENTER_NAME>EARTH</CENTER_NAME><REF_FRAME>TEME</REF_FRAME><TIME_SYSTEM>UTC</TIME_SYSTEM><MEAN_ELEMENT_THEORY>SGP4</MEAN_ELEMENT_THEORY></metadata><data><meanElements><EPOCH>2025-02-09T20:27:52.516224</EPOCH><MEAN_MOTION>14.45146645</MEAN_MOTION><ECCENTRICITY>.0001281</ECCENTRICITY><INCLINATION>45.0132</INCLINATION><RA_OF_ASC_NODE>259.1224</RA_OF_ASC_NODE><ARG_OF_PERICENTER>296.6746</ARG_OF_PERICENTER><MEAN_ANOMALY>63.3974</MEAN_ANOMALY></meanElements><tleParameters><EPHEMERIS_TYPE>0</EPHEMERIS_TYPE><CLASSIFICATION_TYPE>U</CLASSIFICATION_TYPE><NORAD_CAT_ID>25117</NORAD_CAT_ID><ELEMENT_SET_NO>999</ELEMENT_SET_NO><REV_AT_EPOCH>42218</REV_AT_EPOCH><BSTAR>.8359E-3</BSTAR><MEAN_MOTION_DOT>.281E-4</MEAN_MOTION_DOT><MEAN_MOTION_DDOT>0</MEAN_MOTION_DDOT></tleParameters></data></segment></body></omm>
<omm id="CCSDS_OMM_VERS" version="2.0">
<header><CREATION_DATE/><ORIGINATOR/></header><body><segment><metadata><OBJECT_NAME>ORBCOMM FM06</OBJECT_NAME><OBJECT_ID>1997-084G</OBJECT_ID><CENTER_NAME>EARTH</CENTER_NAME><REF_FRAME>TEME</REF_FRAME><TIME_SYSTEM>UTC</TIME_SYSTEM><MEAN_ELEMENT_THEORY>SGP4</MEAN_ELEMENT_THEORY></metadata><data><meanElements><EPOCH>2025-02-09T20:38:34.071648</EPOCH><MEAN_MOTION>14.45310245</MEAN_MOTION><ECCENTRICITY>.0000308</ECCENTRICITY><INCLINATION>45.0124</INCLINATION><RA_OF_ASC_NODE>258.9747</RA_OF_ASC_NODE><ARG_OF_PERICENTER>319.8761</ARG_OF_PERICENTER><MEAN_ANOMALY>54.7877</MEAN_ANOMALY></meanElements><tleParameters><EPHEMERIS_TYPE>0</EPHEMERIS_TYPE><CLASSIFICATION_TYPE>U</CLASSIFICATION_TYPE><NORAD_CAT_ID>25118</NORAD_CAT_ID><ELEMENT_SET_NO>999</ELEMENT_SET_NO><REV_AT_EPOCH>42310</REV_AT_EPOCH><BSTAR>.75808E-3</BSTAR><MEAN_MOTION_DOT>.2544E-4</MEAN_MOTION_DOT><MEAN_MOTION_DDOT>0</MEAN_MOTION_DDOT></tleParameters></data></segment></body></omm>
<omm id="CCSDS_OMM_VERS" version="2.0">
<header><CREATION_DATE/><ORIGINATOR/></header><body><segment><metadata><OBJECT_NAME>ORBCOMM FM07</OBJECT_NAME><OBJECT_ID>1997-084H</OBJECT_ID><CENTER_NAME>EARTH</CENTER_NAME><REF_FRAME>TEME</REF_FRAME><TIME_SYSTEM>UTC</TIME_SYSTEM><MEAN_ELEMENT_THEORY>SGP4</MEAN_ELEMENT_THEORY></metadata><data><meanElements><EPOCH>2025-02-09T20:50:30.491808</EPOCH><MEAN_MOTION>14.45241444</MEAN_MOTION><ECCENTRICITY>.0001984</ECCENTRICITY><INCLINATION>45.0122</INCLINATION><RA_OF_ASC_NODE>259.6825</RA_OF_ASC_NODE><ARG_OF_PERICENTER>284.1650</ARG_OF_PERICENTER><MEAN_ANOMALY>75.8980</MEAN_ANOMALY></meanElements><tleParameters><EPHEMERIS_TYPE>0</EPHEMERIS_TYPE><CLASSIFICATION_TYPE>U</CLASSIFICATION_TYPE><NORAD_CAT_ID>25119</NORAD_CAT_ID><ELEMENT_SET_NO>999</ELEMENT_SET_NO><REV_AT_EPOCH>42309</REV_AT_EPOCH><BSTAR>.88931E-3</BSTAR><MEAN_MOTION_DOT>.3005E-4</MEAN_MOTION_DOT><MEAN_MOTION_DDOT>0</MEAN_MOTION_DDOT></tleParameters></data></segment></body></omm>
<omm id="CCSDS_OMM_VERS" version="2.0">
<header><CREATION_DATE/><ORIGINATOR/></header><body><segment><metadata><OBJECT_NAME>ORBCOMM FM04</OBJECT_NAME><OBJECT_ID>1998-007C</OBJECT_ID><CENTER_NAME>EARTH</CENTER_NAME><REF_FRAME>TEME</REF_FRAME><TIME_SYSTEM>UTC</TIME_SYSTEM><MEAN_ELEMENT_THEORY>SGP4</MEAN_ELEMENT_THEORY></metadata><data><meanElements><EPOCH>2025-02-09T18:39:25.816032</EPOCH><MEAN_MOTION>14.34242438</MEAN_MOTION><ECCENTRICITY>.0039305</ECCENTRICITY><INCLINATION>107.9689</INCLINATION><RA_OF_ASC_NODE>237.0864</RA_OF_ASC_NODE><ARG_OF_PERICENTER>110.4385</ARG_OF_PERICENTER><MEAN_ANOMALY>250.0982</MEAN_ANOMALY></meanElements><tleParameters><EPHEMERIS_TYPE>0</EPHEMERIS_TYPE><CLASSIFICATION_TYPE>U</CLASSIFICATION_TYPE><NORAD_CAT_ID>25159</NORAD_CAT_ID><ELEMENT_SET_NO>999</ELEMENT_SET_NO><REV_AT_EPOCH>40595</REV_AT_EPOCH><BSTAR>.74358E-3</BSTAR><MEAN_MOTION_DOT>.1976E-4</MEAN_MOTION_DOT><MEAN_MOTION_DDOT>0</MEAN_MOTION_DDOT></tleParameters></data></segment></body></omm>
<omm id="CCSDS_OMM_VERS" version="2.0">
<header><CREATION_DATE/><ORIGINATOR/></header><body><segment><metadata><OBJECT_NAME>ORBCOMM FM17</OBJECT_NAME><OBJECT_ID>1998-046A</OBJECT_ID><CENTER_NAME>EARTH</CENTER_NAME><REF_FRAME>TEME</REF_FRAME><TIME_SYSTEM>UTC</TIME_SYSTEM><MEAN_ELEMENT_THEORY>SGP4</MEAN_ELEMENT_THEORY></metadata><data><meanElements><EPOCH>2025-02-09T17:01:36.223392</EPOCH><MEAN_MOTION>14.34637981</MEAN_MOTION><ECCENTRICITY>.000384</ECCENTRICITY><INCLINATION>44.9934</INCLINATION><RA_OF_ASC_NODE>139.0569</RA_OF_ASC_NODE><ARG_OF_PERICENTER>264.3858</ARG_OF_PERICENTER><MEAN_ANOMALY>95.6551</MEAN_ANOMALY></meanElements><tleParameters><EPHEMERIS_TYPE>0</EPHEMERIS_TYPE><CLASSIFICATION_TYPE>U</CLASSIFICATION_TYPE><NORAD_CAT_ID>25413</NORAD_CAT_ID><ELEMENT_SET_NO>999</ELEMENT_SET_NO><REV_AT_EPOCH>38486</REV_AT_EPOCH><BSTAR>.70502E-3</BSTAR><MEAN_MOTION_DOT>.1871E-4</MEAN_MOTION_DOT><MEAN_MOTION_DDOT>0</MEAN_MOTION_DDOT></tleParameters></data></segment></body></omm>
<omm id="CCSDS_OMM_VERS" version="2.0">
<header><CREATION_DATE/><ORIGINATOR/></header><body><segment><metadata><OBJECT_NAME>ORBCOMM FM18</OBJECT_NAME><OBJECT_ID>1998-046B</OBJECT_ID><CENTER_NAME>EARTH</CENTER_NAME><REF_FRAME>TEME</REF_FRAME><TIME_SYSTEM>UTC</TIME_SYSTEM><MEAN_ELEMENT_THEORY>SGP4</MEAN_ELEMENT_THEORY></metadata><data><meanElements><EPOCH>2025-02-09T08:04:57.086112</EPOCH><MEAN_MOTION>14.37907355</MEAN_MOTION><ECCENTRICITY>.0005627</ECCENTRICITY><INCLINATION>44.9932</INCLINATION><RA_OF_ASC_NODE>61.5511</RA_OF_ASC_NODE><ARG_OF_PERICENTER>331.5497</ARG_OF_PERICENTER><MEAN_ANOMALY>28.5043</MEAN_ANOMALY></meanElements><tleParameters><EPHEMERIS_TYPE>0</EPHEMERIS_TYPE><CLASSIFICATION_TYPE>U</CLASSIFICATION_TYPE><NORAD_CAT_ID>25414</NORAD_CAT_ID><ELEMENT_SET_NO>999</ELEMENT_SET_NO><REV_AT_EPOCH>38584</REV_AT_EPOCH><BSTAR>.79163E-3</BSTAR><MEAN_MOTION_DOT>.2271E-4</MEAN_MOTION_DOT><MEAN_MOTION_DDOT>0</MEAN_MOTION_DDOT></tleParameters></data></segment></body></omm>
<omm id="CCSDS_OMM_VERS" version="2.0">
<header><CREATION_DATE/><ORIGINATOR/></header><body><segment><metadata><OBJECT_NAME>ORBCOMM FM19</OBJECT_NAME><OBJECT_ID>1998-046C</OBJECT_ID><CENTER_NAME>EARTH</CENTER_NAME><REF_FRAME>TEME</REF_FRAME><TIME_SYSTEM>UTC</TIME_SYSTEM><MEAN_ELEMENT_THEORY>SGP4</MEAN_ELEMENT_THEORY></metadata><data><meanElements><EPOCH>2025-02-09T18:51:10.370880</EPOCH><MEAN_MOTION>14.37722434</MEAN_MOTION><ECCENTRICITY>.0004777</ECCENTRICITY><INCLINATION>44.9942</INCLINATION><RA_OF_ASC_NODE>61.2224</RA_OF_ASC_NODE><ARG_OF_PERICENTER>321.9089</ARG_OF_PERICENTER><MEAN_ANOMALY>207.5422</MEAN_ANOMALY></meanElements><tleParameters><EPHEMERIS_TYPE>0</EPHEMERIS_TYPE><CLASSIFICATION_TYPE>U</CLASSIFICATION_TYPE><NORAD_CAT_ID>25415</NORAD_CAT_ID><ELEMENT_SET_NO>999</ELEMENT_SET_NO><REV_AT_EPOCH>38586</REV_AT_EPOCH><BSTAR>.86808E-3</BSTAR><MEAN_MOTION_DOT>.2494E-4</MEAN_MOTION_DOT><MEAN_MOTION_DDOT>0</MEAN_MOTION_DDOT></tleParameters></data></segment></body></omm>

</ndm>
